{"spkid": "20159504", "covariance": {"epoch": "2457982.5", "elements": [{"name": "e", "sigma": 1.89915255165486e-08, "units": null, "title": "eccentricity", "value": ".6178365079649928", "label": "e"}, {"sigma": 4.56597246750273e-08, "name": "q", "units": "au", "value": ".9297545388077874", "title": "perihelion distance", "label": "q"}, {"label": "tp", "value": "2457291.534702438622", "title": "time of perihelion passage", "units": "TDB", "name": "tp", "sigma": 9.20133869329818e-06}, {"label": "node", "sigma": 2.40348870437468e-05, "name": "om", "title": "longitude of the ascending node", "value": "107.6930400967587", "units": "deg"}, {"label": "peri", "name": "w", "sigma": 2.43229206614287e-05, "title": "argument of perihelion", "value": "237.7352350463995", "units": "deg"}, {"sigma": 5.12261519738324e-06, "name": "i", "title": "inclination", "value": "9.693372944012328", "units": "deg", "label": "i"}], "data": [["3.606780414457153E-16", "-8.615481542441765E-16", "7.80937996914938E-14", "-2.075017648558746E-15", "3.295273152701964E-14", "-5.204232318083195E-15"], ["-8.615481542441765E-16", "2.084810457399298E-15", "-1.841318564128043E-13", "4.728173538780201E-15", "-7.428593674068297E-14", "1.216693567375754E-14"], ["7.80937996914938E-14", "-1.841318564128043E-13", "8.466463374878629E-11", "-7.635776667756374E-12", "4.772912055293693E-11", "7.257665083417266E-13"], ["-2.075017648558746E-15", "4.728173538780201E-15", "-7.635776667756374E-12", "5.776757952056677E-10", "-5.711600961758477E-10", "-7.739885425637455E-11"], ["3.295273152701964E-14", "-7.428593674068297E-14", "4.772912055293693E-11", "-5.711600961758477E-10", "5.91604469502157E-10", "7.561544274552212E-11"], ["-5.204232318083195E-15", "1.216693567375754E-14", "7.257665083417266E-13", "-7.739885425637455E-11", "7.561544274552212E-11", "2.624118646046169E-11"]], "labels": ["e", "q", "tp", "node", "peri", "i"]}, "elements": [{"label": "e", "name": "e", "sigma": "1.8942E-8", "units": null, "title": "eccentricity", "value": ".6170325707781855"}, {"value": "2.433707676382442", "title": "semi-major axis", "units": "au", "sigma": "1.3636E-8", "name": "a", "label": "a"}, {"label": "q", "sigma": "4.5538E-8", "name": "q", "units": "au", "value": ".9320307723015793", "title": "perihelion distance"}, {"label": "i", "units": "deg", "title": "inclination; angle with respect to x-y ecliptic plane", "value": "9.689788384272584", "name": "i", "sigma": "5.1247E-6"}, {"title": "longitude of the ascending node", "value": "107.5640482925976", "units": "deg", "sigma": "2.4033E-5", "name": "om", "label": "node"}, {"name": "w", "sigma": "2.4326E-5", "title": "argument of perihelion", "value": "237.7973082820249", "units": "deg", "label": "peri"}, {"label": "M", "sigma": "9.2065E-6", "name": "ma", "units": "deg", "title": "mean anomaly", "value": "294.8240276108272"}, {"units": "TDB", "value": "2461451.564936257512", "title": "time of perihelion passage", "sigma": "3.751E-5", "name": "tp", "label": "tp"}, {"sigma": "1.1655E-5", "name": "per", "title": "sidereal orbital period", "value": "1386.75916506493", "units": "d", "label": "period"}, {"label": "n", "name": "n", "sigma": "2.1818E-9", "value": ".2595980679768172", "title": "mean motion", "units": "deg/d"}, {"label": "Q", "name": "ad", "sigma": "2.205E-8", "units": "au", "value": "3.935384580463305", "title": "aphelion distance"}], "epoch": "2461200.5"}